STARLINK-4687           
1 53784U 22111M   26068.87525010  .00000174  00000+0  29043-4 0  9997
2 53784  53.2170 273.3260 0001240  81.8434 278.2699 15.08832094193720
LEMUR-2-UNTITLED-SC     
1 63351U 25061A   26068.89211098  .00005783  00000+0  33296-3 0  9990
2 63351  97.5556  45.0864 0017373 245.6030 114.3388 15.12695529 52577
